TRITON-1                
1 39427U 13066M   26200.23699454  .00000845  00000+0  10634-3 0  9996
2 39427  97.8218 109.3114 0090880 129.1001 231.8339 14.81802761678839
GOMX-1                  
1 39430U 13066Q   26200.25653964  .00000530  00000+0  86687-4 0  9991
2 39430  97.6463  38.6950 0127868 335.1393  24.3688 14.69547500674623
CUBEBUG-2 (LO-74)       
1 39440U 13066AA  26200.28076766  .00001916  00000+0  18028-3 0  9996
2 39440  97.8920 149.4029 0055561 281.5253  77.9731 14.93983583681781
NEE-02 KRYSAOR          
1 39441U 13066AB  26200.11145227  .00001036  00000+0  11858-3 0  9995
2 39441  97.8896 139.1025 0065084 326.3191  33.3896 14.86748144680945
FUNCUBE-1 (AO-73)       
1 39444U 13066AE  26200.20282202  .00004294  00000+0  26517-3 0  9990
2 39444  97.8299 172.3289 0037989  94.6504 265.9065 15.09850419684492
UWE-3                   
1 39446U 13066AG  26200.29678307  .00002143  00000+0  18642-3 0  9997
2 39446  97.8722 156.5949 0047645 210.4063 149.4394 14.97216256682388
SMDC ONE 2.4            
1 39469U 13072H   26200.26617735  .00008794  00000+0  32724-3 0  9999
2 39469 120.4886 116.0002 0148268  52.7410 308.7085 15.18889648122701
COSMOS 2488 (RODNIK-S 7)
1 39483U 13076A   26200.23612351  .00000047  00000+0  26765-3 0  9996
2 39483  82.4864 148.7299 0020467  29.1537 331.0680 12.42906289569876
COSMOS 2489 (RODNIK-S 8)
1 39484U 13076B   26200.29249644  .00000090  00000+0  57587-3 0  9998
2 39484  82.4901 150.0842 0022291  28.6973 331.5328 12.42880318569939
COSMOS 2490 (RODNIK-S 9)
1 39485U 13076C   26200.26442736  .00000130  00000+0  86421-3 0  9997
2 39485  82.4848 148.1551 0022690  43.7585 316.5288 12.42879433569861
KAZEOSAT 1              
1 39731U 14024A   26200.28597120 -.00000010  00000+0  10070-4 0  9991
2 39731  98.3191 271.9322 0001202  86.0893 274.0435 14.42038046643180
COSMOS 2496 (RODNIK-S *)
1 39761U 14028A   26200.30239979  .00000014  00000+0  31202-4 0  9999
2 39761  82.4443  88.6165 0020685  12.2592 347.8987 12.42879599551507
COSMOS 2497 (RODNIK-S *)
1 39762U 14028B   26200.27727162  .00000050  00000+0  29245-3 0  9995
2 39762  82.4493  90.3345 0021142   7.3589 352.7796 12.42895519551506
COSMOS 2498 (RODNIK-S *)
1 39763U 14028C   26200.25265627  .00000051  00000+0  29951-3 0  9992
2 39763  82.4453  88.8230 0021862   6.9339 353.2039 12.42981257551539
HODOYOSHI-4             
1 40011U 14033B   26200.30859596  .00000012  00000+0  69670-5 0  9997
2 40011  97.5460  23.5826 0022978 195.6623 164.3886 14.88191478653589
UNISAT-6                
1 40012U 14033C   26200.00078251  .00001017  00000+0  11402-3 0  9990
2 40012  97.7915 352.1617 0043864 324.9894  34.8441 14.88375092650895
DEIMOS-2                
1 40013U 14033D   26200.26966355  .00001279  00000+0  12572-3 0  9999
2 40013  97.5778  73.6250 0001389 107.4117 252.7256 14.93803674642510
BUGSAT-1 (TITA)         
1 40014U 14033E   26200.25153740  .00003068  00000+0  16251-3 0  9991
2 40014  98.0430 294.6835 0029018  72.8064 287.6340 15.15906371660694
SAUDISAT 4              
1 40016U 14033G   26200.24240706  .00000216  00000+0  35382-4 0  9990
2 40016  97.7624 345.2761 0043933 330.7353  29.1398 14.79577789650818
APRIZESAT 9             
1 40018U 14033J   26200.24375863  .00000295  00000+0  50677-4 0  9996
2 40018  97.9100 332.6656 0067512  97.2069 263.6822 14.74255488648281
BRITE-CA1 (TORONTO)     
1 40020U 14033L   26200.31108209  .00000524  00000+0  86289-4 0  9998
2 40020  97.9776 328.6539 0078789 173.0970 187.1343 14.72727256646944
