OBJECT_NAME,OBJECT_ID,EPOCH,MEAN_MOTION,ECCENTRICITY,INCLINATION,RA_OF_ASC_NODE,ARG_OF_PERICENTER,MEAN_ANOMALY,EPHEMERIS_TYPE,CLASSIFICATION_TYPE,NORAD_CAT_ID,ELEMENT_SET_NO,REV_AT_EPOCH,BSTAR,MEAN_MOTION_DOT,MEAN_MOTION_DDOT
TRITON-1,2013-066M,2026-07-19T05:41:16.328256,14.81802761,.009088,97.8218,109.3114,129.1001,231.8339,0,U,39427,999,67883,.10634026E-3,.845E-5,0
GOMX-1,2013-066Q,2026-07-19T06:09:25.024896,14.69547500,.01278689,97.6463,38.6950,335.1393,24.3688,0,U,39430,999,67462,.86687458E-4,.53E-5,0
CUBEBUG-2 (LO-74),2013-066AA,2026-07-19T06:44:18.325824,14.93983583,.00555619,97.8920,149.4029,281.5253,77.9731,0,U,39440,999,68178,.18027526E-3,.1916E-4,0
NEE-02 KRYSAOR,2013-066AB,2026-07-19T02:40:29.476128,14.86748144,.00650845,97.8896,139.1025,326.3191,33.3896,0,U,39441,999,68094,.1185759E-3,.1036E-4,0
FUNCUBE-1 (AO-73),2013-066AE,2026-07-19T04:52:03.822528,15.09850419,.0037989,97.8299,172.3289,94.6504,265.9065,0,U,39444,999,68449,.26516956E-3,.4294E-4,0
UWE-3,2013-066AG,2026-07-19T07:07:22.057248,14.97216256,.00476452,97.8722,156.5949,210.4063,149.4394,0,U,39446,999,68238,.18641868E-3,.2143E-4,0
SMDC ONE 2.4,2013-072H,2026-07-19T06:23:17.723040,15.18889648,.01482685,120.4886,116.0002,52.7410,308.7085,0,U,39469,999,12270,.32724205E-3,.8794E-4,0
COSMOS 2488 (RODNIK-S 7),2013-076A,2026-07-19T05:40:01.071264,12.42906289,.00204673,82.4864,148.7299,29.1537,331.0680,0,U,39483,999,56987,.26764965E-3,.47E-6,0
COSMOS 2489 (RODNIK-S 8),2013-076B,2026-07-19T07:01:11.692416,12.42880318,.00222912,82.4901,150.0842,28.6973,331.5328,0,U,39484,999,56993,.57587291E-3,.9E-6,0
COSMOS 2490 (RODNIK-S 9),2013-076C,2026-07-19T06:20:46.523904,12.42879433,.002269,82.4848,148.1551,43.7585,316.5288,0,U,39485,999,56986,.86420902E-3,.13E-5,0
KAZEOSAT 1,2014-024A,2026-07-19T06:51:47.911680,14.42038046,.00012029,98.3191,271.9322,86.0893,274.0435,0,U,39731,999,64318,.10069865E-4,-.1E-6,0
COSMOS 2496 (RODNIK-S 10),2014-028A,2026-07-19T07:15:27.341856,12.42879599,.00206858,82.4443,88.6165,12.2592,347.8987,0,U,39761,999,55150,.31201742E-4,.14E-6,0
COSMOS 2497 (RODNIK-S 11),2014-028B,2026-07-19T06:39:16.267968,12.42895519,.00211422,82.4493,90.3345,7.3589,352.7796,0,U,39762,999,55150,.29244984E-3,.5E-6,0
COSMOS 2498 (RODNIK-S 12),2014-028C,2026-07-19T06:03:49.501728,12.42981257,.00218628,82.4453,88.8230,6.9339,353.2039,0,U,39763,999,55153,.29951009E-3,.51E-6,0
HODOYOSHI-4,2014-033B,2026-07-19T07:24:22.690944,14.88191478,.00229789,97.5460,23.5826,195.6623,164.3886,0,U,40011,999,65358,.6967036E-5,.12E-6,0
UNISAT-6,2014-033C,2026-07-19T00:01:07.608864,14.88375092,.00438641,97.7915,352.1617,324.9894,34.8441,0,U,40012,999,65089,.11401936E-3,.1017E-4,0
DEIMOS-2,2014-033D,2026-07-19T06:28:18.930720,14.93803674,.00013897,97.5778,73.6250,107.4117,252.7256,0,U,40013,999,64251,.12571539E-3,.1279E-4,0
BUGSAT-1 (TITA),2014-033E,2026-07-19T06:02:12.831360,15.15906371,.0029018,98.0430,294.6835,72.8064,287.6340,0,U,40014,999,66069,.16251034E-3,.3068E-4,0
SAUDISAT 4,2014-033G,2026-07-19T05:49:03.969984,14.79577789,.00439337,97.7624,345.2761,330.7353,29.1398,0,U,40016,999,65081,.3538199E-4,.216E-5,0
APRIZESAT 9,2014-033J,2026-07-19T05:51:00.745632,14.74255488,.00675128,97.9100,332.6656,97.2069,263.6822,0,U,40018,999,64828,.50677092E-4,.295E-5,0
BRITE-CA1 (TORONTO),2014-033L,2026-07-19T07:27:57.492576,14.72727256,.00787895,97.9776,328.6539,173.0970,187.1343,0,U,40020,999,64694,.8628879E-4,.524E-5,0
